UNKNOWN                 
1 81052U          26010.57935162  .00007094  00000+0  18547-2 0  9999
2 81052  65.7734 316.5387 0564794 293.9207  60.3687 13.83434642604301
UNKNOWN                 
1 81069U          26009.48745160  .00003741  00000+0  49437-2 0  9999
2 81069 100.3836 277.2821 0067744 336.4964  23.3083 13.60735301519709
UNKNOWN                 
1 81111U          26011.35875022  .00022258  00000+0  47751-2 0  9998
2 81111  62.8959 351.4593 3854690 358.3698   0.7013  7.56366514274186
UNKNOWN                 
1 81123U          26006.52308960  .00001311  00000+0  12737-2 0  9999
2 81123  99.9706  94.5272 0001693   5.3365 354.7804 13.81655968609702
UNKNOWN                 
1 81134U          26009.25789993  .00000215  00000+0  76097-3 0  9995
2 81134  90.2480   4.6430 0024896 320.5460  39.3844 12.92989953466169
UNKNOWN                 
1 81161U          26009.40117745  .00000663  00000+0  72986-3 0  9992
2 81161 100.4172 218.9695 0062882 213.9626 145.7487 13.75679970559930
UNKNOWN                 
1 81219U          26010.66925587  .00000496  00000+0  44769-3 0  9999
2 81219  82.9273 344.4093 0022019 130.6354 229.6725 13.81813989611515
UNKNOWN                 
1 81228U          26006.24959912  .00006414  00000+0  19546-2 0  9997
2 81228  70.5185 221.7214 0063698 324.5484  35.1423 14.41174073629625
UNKNOWN                 
1 81254U          26011.43916597  .00003579  00000+0  23418-2 0  9997
2 81254 100.3868  82.5977 0070702 352.6662   7.3459 14.01745595617050
UNKNOWN                 
1 81279U          26010.94742733  .00001154  00000+0  45496-3 0  9996
2 81279  98.1259  73.0273 0206064 299.5686  58.5095 14.20019675466742
UNKNOWN                 
1 81301U          26009.33605779  .00000170  00000+0  24062-3 0  9994
2 81301  66.7567 229.9574 0092473 214.8782 323.3451 13.76723218610151
UNKNOWN                 
1 81311U          26008.40684120  .00000664  00000+0  14384-3 0  9993
2 81311  98.7287  71.9353 0132034  43.5076  20.2843 14.56584907643475
UNKNOWN                 
1 81317U          26005.08762291  .00000169  00000+0  38844-3 0  9993
2 81317  67.1369 125.2217 0211226  17.6258 167.1203 13.38023899591750
UNKNOWN                 
1 81323U          26004.58863471  .00027214  00000+0  34438-2 0  9990
2 81323  65.7522 324.9278 0342985 301.3657  55.4300 14.48054815116361
UNKNOWN                 
1 81329U          26011.41677372  .00001639  00000+0  60948-3 0  9998
2 81329  65.8207  62.2974 0832941  16.4825 346.1620 13.22235469582000
UNKNOWN                 
1 81343U          26011.44510328  .00007761  00000+0  55493-3 0  9995
2 81343  85.8717 183.4752 0009698 145.4848 214.7017 15.04282115458786
UNKNOWN                 
1 81359U          26010.54801793  .00000703  00000+0  72296-3 0  9990
2 81359  66.7985 343.0362 0119667 304.7563  54.2289 13.78888782609452
UNKNOWN                 
1 81366U          26011.22991130  .00001084  00000+0  41358-3 0  9997
2 81366  65.8841   2.2222 0710269  67.2543 300.1951 13.45197048 69927
UNKNOWN                 
1 81371U          25349.02062434  .00002320  00000+0  37982-3 0  9992
2 81371  98.8144  85.6265 0070126 358.1968   1.8972 14.70293799642172
UNKNOWN                 
1 81386U          25357.21895263  .00006029  00000+0  19923-2 0  9996
2 81386  71.0480 333.8064 0083954  67.7151 293.2858 14.36355118625749
UNKNOWN                 
1 81390U          26005.94518511 -.00000068  00000+0 -13782-3 0  9997
2 81390 103.1072 261.2745 0167515 100.8582 261.1375 12.35628586503080
UNKNOWN                 
1 81392U          26010.75548157  .00003288  00000+0  30917-2 0  9996
2 81392 100.4021   6.9096 0042732 319.1996 217.3893 13.81907739606181
UNKNOWN                 
1 81405U          26003.38107143  .00002710  00000+0  20508-2 0  9992
2 81405  99.4680  56.9006 0161190 166.1515 194.4141 13.88959115564802
UNKNOWN                 
1 81406U          25354.93559605  .00000948  00000+0  39727-3 0  9991
2 81406  65.8190 136.2966 0869929 316.2525  37.2633 13.12175268534754
UNKNOWN                 
1 81427U          26007.95693291  .00000976  00000+0  59094-3 0  9992
2 81427  98.7483 254.2456 0084470 325.0713  34.4931 14.07002826555453
UNKNOWN                 
1 81438U          26007.37547803  .00002984  00000+0  43678-2 0  9998
2 81438 100.3168 245.1713 0056097   7.3568 352.8378 13.54859618595414
UNKNOWN                 
1 81439U          26010.48059169  .00000139  00000+0  52970-3 0  9994
2 81439  67.1608  86.2208 0601309 185.7122 173.6818 12.62636251265524
UNKNOWN                 
1 81449U          26011.42712196  .00100813  00000+0  69720-2 0  9996
2 81449  66.7922 265.0364 0022049  97.2998 263.0646 15.04910234638011
UNKNOWN                 
1 81478U          26011.03004421  .00004045  00000+0  14573-2 0  9996
2 81478  98.9519 288.6864 0144914 273.8368 102.5396 14.28578165627124
UNKNOWN                 
1 81488U          26011.48702610  .00000061  00000+0  15200-3 0  9994
2 81488  99.9995 249.5889 0044230 286.5231 194.4063 13.56530314600662
UNKNOWN                 
1 81497U          26010.49385876  .00003412  00000+0  30834-2 0  9997
2 81497 100.3018 272.9000 0028873 303.9462 237.6200 13.84405172220277
UNKNOWN                 
1 81499U          26009.70122410  .00003193  00000+0  87923-3 0  9992
2 81499  74.0486 168.8388 0001962 280.2062  79.8876 14.47302787486468
UNKNOWN                 
1 81535U          26009.04335599  .00000779  00000+0  33342-3 0  9997
2 81535  98.1993  94.0298 0235768  69.8847 292.7528 14.13513715391254
UNKNOWN                 
1 81536U          26011.40075565  .00000520  00000+0  34422-2 0  9998
2 81536 101.9620 237.8175 0027695 247.7015 293.6302 12.55908547555536
UNKNOWN                 
1 81537U          26009.83147767  .00000053  00000+0  57843-4 0  9992
2 81537  71.0393  51.1315 0074673 110.7725 250.1415 14.07113007624414
UNKNOWN                 
1 81552U          25349.51435483  .00001096  00000+0  24303-2 0  9996
2 81552  99.0653 275.7867 0259238  11.5492 349.1424 13.18182296579614
UNKNOWN                 
1 81599U          26008.88240998  .00000845  00000+0  16051-2 0  9997
2 81599  67.2918 222.2535 0245449  64.3858 312.0517 13.31480430588692
UNKNOWN                 
1 81605U          26011.62072249  .00000334  00000+0  17635-2 0  9995
2 81605  56.4344 128.9045 0175597 174.3168 185.9804 12.81554889190030
UNKNOWN                 
1 81614U          25362.93808459  .00006376  00000+0  41114-1 0  9997
2 81614 101.8208 358.2906 0333303 117.4365 246.1008 12.37272975539987
UNKNOWN                 
1 81615U          26011.64508068  .00001106  00000+0  42164-3 0  9995
2 81615  65.8285 352.4336 0769397 122.6370 245.1315 13.34178485586852
UNKNOWN                 
1 81617U          26011.22416572  .00000308  00000+0  20784-2 0  9995
2 81617 101.2597 189.3909 0038200 187.5489 172.5016 12.57558679556816
UNKNOWN                 
1 81624U          26005.97784356  .00010409  00000+0  16282-2 0  9997
2 81624  66.9769  99.9462 0069310 218.5053 141.1114 14.71460928643275
UNKNOWN                 
1 81640U          26011.44976028  .00000119  00000+0  16438-3 0  9994
2 81640  65.8265  71.1850 0976579  65.5417 304.4251 12.57236997513814
UNKNOWN                 
1 81652U          25355.17970245  .00000611  00000+0  77035-3 0  9999
2 81652 102.1470 245.4139 0368004 340.8161 173.3701 13.44387754579785
UNKNOWN                 
1 81667U          26008.18809063  .00002570  00000+0  69553-3 0  9993
2 81667  74.0420 347.0597 0017740 273.2639  86.6491 14.48150952460477
UNKNOWN                 
1 81674U          26002.29485003  .00002042  00000+0  11968-2 0  9991
2 81674  66.8243 312.5108 0030094 219.1286 296.6724 14.09977125616613
UNKNOWN                 
1 81683U          26011.67901537  .00002147  00000+0  46686-3 0  9990
2 81683  81.2142 263.7939 0022476 205.0118 154.9992 14.57605117640223
UNKNOWN                 
1 81693U          26011.40750768  .00000482  00000+0  37514-2 0  9999
2 81693 101.0945  74.5819 0364430  27.8685 334.1387 12.25928422971406
UNKNOWN                 
1 81745U          26011.57759903  .00002375  00000+0  76119-3 0  9993
2 81745  71.0019 322.2035 0005750 206.3128 153.7717 14.40526510634047
UNKNOWN                 
1 81775U          26007.49459149  .00005626  00000+0  17344-2 0  9997
2 81775  82.9177 202.9347 0016371 170.0903 190.0616 14.41229713628989
UNKNOWN                 
1 81779U          26011.55907252  .00001679  00000+0  90597-1 0  9990
2 81779  54.5429 164.7730 1575585  80.8178 296.6761  9.34347629483109
UNKNOWN                 
1 81792U          26009.80546504  .00002708  00000+0  96287-3 0  9997
2 81792  65.8266  32.7928 0896393 270.0224  79.8231 13.11072761 83716
UNKNOWN                 
1 81812U          26011.24137098  .00000729  00000+0  54529-2 0  9998
2 81812 103.8171 291.7117 0245094 196.1661 163.1468 12.37650992544214
UNKNOWN                 
1 81816U          26009.01777051  .00001072  00000+0  83081-3 0  9991
2 81816  66.2385 228.1107 0176269 230.8535 127.6762 13.89547215613134
UNKNOWN                 
1 81819U          26008.20005150  .00001085  00000+0  76508-2 0  9997
2 81819 102.1730 110.7356 0031986  71.7146 288.7397 12.47717194551311
UNKNOWN                 
1 81824U          26010.95435123  .00004018  00000+0  14026-2 0  9991
2 81824  65.8424 257.5219 0043554 316.5255  43.2407 14.35789472628784
UNKNOWN                 
1 81833U          26007.71744187  .00000178  00000+0  61987-3 0  9996
2 81833  90.2405   3.4723 0026181 318.3047  41.6076 12.93737743455877
UNKNOWN                 
1 81844U          26008.43863736  .00002765  00000+0  97957-3 0  9990
2 81844  82.9084 260.6502 0063308  70.1458 290.6539 14.33127909626719
UNKNOWN                 
1 81845U          26010.77215523  .00002990  00000+0  33145-3 0  9995
2 81845  97.6745 201.7391 0086812 208.8892 165.9211 14.85297558653835
